GSAT-16                 
1 40332U 14078A   26169.19287190  .00000079  00000+0  00000+0 0  9997
2 40332   0.0925  89.3668 0007570   0.3016 301.2725  1.00270418 42110
DIRECTV 14              
1 40333U 14078B   26168.97879149 -.00000131  00000+0  00000+0 0  9994
2 40333   0.0098  23.1294 0000435 292.0243 204.1979  1.00271608 42055
YAMAL 401               
1 40345U 14082A   26169.12853780  .00000000  00000+0  00000+0 0  9997
2 40345   0.0143   8.0586 0000146 286.8800 107.6718  1.00270609 41927
ASTRA 2G                
1 40364U 14089A   26168.26076118  .00000146  00000+0  00000+0 0  9992
2 40364   0.0457 356.8073 0004500  73.2664 317.5337  1.00273746 41963
FENGYUN 2G              
1 40367U 14090A   26168.77395412 -.00000310  00000+0  00000+0 0  9998
2 40367   5.6410  72.8081 0004012 158.0009  53.5218  1.00271765 42003
MUOS-3                  
1 40374U 15002A   26169.03642529 -.00000136  00000+0  00000+0 0  9990
2 40374   4.5222  43.5260 0052001 178.0070  42.4300  1.00271452 41590
INMARSAT 5-F2           
1 40384U 15005A   26168.45818182 -.00000290  00000+0  00000+0 0  9990
2 40384   0.0183 359.5197 0000690 309.2992  66.8429  1.00272028 40990
ABS-3A                  
1 40424U 15010A   26167.91989406 -.00000028  00000+0  00000+0 0  9998
2 40424   0.0018 358.9464 0001832  29.3198 205.0834  1.00277277 41370
EUTELSAT 115 WEST B     
1 40425U 15010B   26168.46919677 -.00000030  00000+0  00000+0 0  9996
2 40425   0.0113 150.4979 0000428 288.8960 240.3379  1.00272513 41398
EXPRESS-AM7             
1 40505U 15012A   26169.18992522  .00000145  00000+0  00000+0 0  9993
2 40505   0.0157  26.9368 0002898  65.8227 282.0191  1.00271102 41013
BEIDOU-3S IGSO-1S       
1 40549U 15019A   26167.83844597 -.00000175  00000+0  00000+0 0  9990
2 40549  49.1960 295.4654 0039047 191.2267 171.7060  1.00249739 41078
THOR 7                  
1 40613U 15022A   26169.18186517 -.00000014  00000+0  00000+0 0  9999
2 40613   0.0276 237.6329 0002413 208.0577 245.5636  1.00272904 40822
TURKMENALEM52E/MONACOSAT
1 40617U 15023A   26169.19226523  .00000098  00000+0  00000+0 0  9998
2 40617   0.0396  77.4038 0002698   3.0957 307.1527  1.00271380 40850
DIRECTV 15              
1 40663U 15026A   26169.29870812 -.00000108  00000+0  00000+0 0  9992
2 40663   0.0135  51.7217 0000373 270.4389 309.0199  1.00267860 40475
SKY MEXICO-1            
1 40664U 15026B   26169.11967057 -.00000240  00000+0  00000+0 0  9999
2 40664   0.0142  31.3680 0002097  76.6362 122.6309  1.00269982 40462
METEOSAT-11 (MSG-4)     
1 40732U 15034A   26168.25712117  .00000060  00000+0  00000+0 0  9992
2 40732   3.2014  71.1096 0001741  11.8883 284.7520  1.00280400  7217
STAR ONE C4             
1 40733U 15034B   26168.52651905 -.00000270  00000+0  00000+0 0  9994
2 40733   0.0215 351.6390 0002023  84.9791 308.7007  1.00269460 40017
WGS F7 (USA 263)        
1 40746U 15036A   26168.86021744  .00000012  00000+0  00000+0 0  9992
2 40746   0.0024 355.3748 0000201 330.3636  65.0485  1.00272438 39873
INTELSAT 34 (IS-34)     
1 40874U 15039A   26169.24588336 -.00000291  00000+0  00000+0 0  9995
2 40874   0.0097   2.3662 0000419 325.9553 331.1903  1.00269482 39640
EUTELSAT 8 WEST B       
1 40875U 15039B   26169.18039184 -.00000072  00000+0  00000+0 0  9998
2 40875   0.0632 347.8748 0003927  96.2650 239.2307  1.00271526 39661
GSAT-6                  
1 40880U 15041A   26169.12706446 -.00000167  00000+0  00000+0 0  9998
2 40880   1.9215  82.5843 0003284 358.6831 313.3872  1.00271983 39607
INMARSAT 5-F3           
1 40882U 15042A   26168.64718083  .00000044  00000+0  00000+0 0  9990
2 40882   0.0172  12.6317 0000190 263.3909  42.4841  1.00265327 39579
MUOS-4                  
1 40887U 15044A   26169.19685859 -.00000100  00000+0  00000+0 0  9996
2 40887   4.3323  42.2575 0057896   2.2122   7.8195  1.00271190 39578
TJS-1                   
1 40892U 15046A   26169.28397819 -.00000162  00000+0  00000+0 0  9998
2 40892   0.3272  84.8946 0005538 359.9345  78.9840  1.00270810 39587
EXPRESS-AM8             
1 40895U 15048A   26169.17917850 -.00000117  00000+0  00000+0 0  9994
2 40895   0.0134 301.1558 0000481   2.1966  13.5672  1.00271410 39356
BEIDOU-3S IGSO-2S       
1 40938U 15053A   26168.70526789 -.00000132  00000+0  00000+0 0  9990
2 40938  49.2207 258.7761 0065582 192.0839 164.1337  1.00258762 39350
SKY MUSTER 1 (NBN1A)    
1 40940U 15054A   26168.71068348  .00000000  00000+0  00000+0 0  9990
2 40940   0.0234 353.3035 0001612  92.6240 216.1098  1.00268158 39261
ARSAT 2                 
1 40941U 15054B   26168.88075753 -.00000230  00000+0  00000+0 0  9993
2 40941   0.0381  62.3668 0001979   7.7717  72.0565  1.00270518 39313
MORELOS 3               
1 40946U 15056A   26168.46919677 -.00000050  00000+0  00000+0 0  9996
2 40946   3.1869  15.0767 0001048   6.6271 299.8511  1.00273381 39285
APSTAR-9                
1 40982U 15059A   26169.28137819 -.00000272  00000+0  00000+0 0  9996
2 40982   0.0368  52.7581 0002290 134.1926 322.8823  1.00271335 39135
TURKSAT 4B              
1 40984U 15060A   26169.19183190  .00000109  00000+0  00000+0 0  9991
2 40984   0.0169 327.2336 0002113 104.5376 313.7078  1.00273211 39101
ZHONGXING-2C            
1 41021U 15063A   26169.07544699 -.00000329  00000+0  00000+0 0  9994
2 41021   0.2765  89.6842 0007678  99.3948 207.8538  1.00270365 38982
